{
  "norad_id": 37753,
  "name": "NAVSTAR 66 (USA 232)",
  "history": [
    {
      "epoch": "2026-03-28T20:04:02.977248Z",
      "apogee_km": 20556.368609928944,
      "perigee_km": 19808.15578997055,
      "latitude_deg": 2.8374668259806857,
      "longitude_deg": 26.028972718180356,
      "height_km": 20339.03708875872,
      "semi_major_axis_km": 26560.399199949745,
      "eccentricity": 0.01408512,
      "inclination_deg": 56.6002,
      "raan_deg": 335.1474,
      "arg_perigee_deg": 61.2048,
      "mean_anomaly_deg": 113.9269,
      "mean_motion_rev_day": 2.00563022
    }
  ]
}