{"fetched_at":"2026-03-29T16:36:15Z","count":15609,"tles":[{"name":"NAVSTAR 66 (USA 232)","line1":"1 37753U 11036A   26087.83614557 -.00000085  00000+0  00000+0 0  9990","line2":"2 37753  56.6002 335.1474 0140851  61.2048 113.9269  2.00563022107664","category":"GPS"}]}